start=new Date('2022-05-15T00:00:00.000Z').valueOf();
sats=[{"SITE":"AFETR","CLASSIFICATION_TYPE":"U","BSTAR":"0.00012262000000","APOAPSIS":"548.114","CENTER_NAME":"EARTH","COUNTRY_CODE":"US","MEAN_MOTION_DDOT":"0.0000000000000","ELEMENT_SET_NO":"999","RCS_SIZE":"LARGE","PERIAPSIS":"546.276","ARG_OF_PERICENTER":"88.5319","SEMIMAJOR_AXIS":"6925.330","ECCENTRICITY":"0.00013270","OBJECT_NAME":"STARLINK-1470","RA_OF_ASC_NODE":"338.2931","OBJECT_ID":"2020-038AU","MEAN_ANOMALY":"271.5822","GP_ID":"203560944","EPHEMERIS_TYPE":"0","NORAD_CAT_ID":"45772","REF_FRAME":"TEME","FILE":"3445938","INCLINATION":"53.0540","DECAY_DATE":null,"OBJECT_TYPE":"PAYLOAD","MEAN_MOTION_DOT":"0.00001546","PERIOD":"95.592","REV_AT_EPOCH":"10652","LAUNCH_DATE":"2020-06-13","EPOCH":"2022-05-14T20:22:12.169344","MEAN_MOTION":"15.06405992","TLE_LINE1":"1 45772U 20038AU  22134.84875196  .00001546  00000-0  12262-3 0  9990","TLE_LINE2":"2 45772  53.0540 338.2931 0001327  88.5319 271.5822 15.06405992106522","MEAN_ELEMENT_THEORY":"SGP4","TIME_SYSTEM":"UTC"},{"OBJECT_ID":"2020-038AV","GP_ID":"203561701","MEAN_ANOMALY":"286.1951","OBJECT_NAME":"STARLINK-1482","ECCENTRICITY":"0.00014590","SEMIMAJOR_AXIS":"6925.346","RA_OF_ASC_NODE":"338.3431","PERIAPSIS":"546.201","RCS_SIZE":"LARGE","ARG_OF_PERICENTER":"73.9199","BSTAR":"0.00000762190000","CLASSIFICATION_TYPE":"U","SITE":"AFETR","ELEMENT_SET_NO":"999","MEAN_MOTION_DDOT":"0.0000000000000","COUNTRY_CODE":"US","CENTER_NAME":"EARTH","APOAPSIS":"548.221","TLE_LINE1":"1 45773U 20038AV  22134.84138650 -.00000168  00000-0  76219-5 0  9992","TIME_SYSTEM":"UTC","TLE_LINE2":"2 45773  53.0567 338.3431 0001459  73.9199 286.1951 15.06400860106522","MEAN_ELEMENT_THEORY":"SGP4","LAUNCH_DATE":"2020-06-13","REV_AT_EPOCH":"10652","MEAN_MOTION":"15.06400860","EPOCH":"2022-05-14T20:11:35.793600","INCLINATION":"53.0567","FILE":"3445938","OBJECT_TYPE":"PAYLOAD","PERIOD":"95.592","MEAN_MOTION_DOT":"-0.00000168","DECAY_DATE":null,"NORAD_CAT_ID":"45773","EPHEMERIS_TYPE":"0","REF_FRAME":"TEME"},{"OBJECT_NAME":"STARLINK-1485","SEMIMAJOR_AXIS":"6925.364","ECCENTRICITY":"0.00014960","RA_OF_ASC_NODE":"338.1754","OBJECT_ID":"2020-038AW","GP_ID":"203561421","MEAN_ANOMALY":"288.3877","BSTAR":"0.00002512900000","SITE":"AFETR","CLASSIFICATION_TYPE":"U","MEAN_MOTION_DDOT":"0.0000000000000","COUNTRY_CODE":"US","ELEMENT_SET_NO":"999","APOAPSIS":"548.265","CENTER_NAME":"EARTH","RCS_SIZE":"LARGE","PERIAPSIS":"546.193","ARG_OF_PERICENTER":"71.7274","REV_AT_EPOCH":"10652","LAUNCH_DATE":"2020-06-13","MEAN_MOTION":"15.06394997","EPOCH":"2022-05-14T21:04:40.959840","TLE_LINE1":"1 45774U 20038AW  22134.87825185  .00000093  00000-0  25129-4 0  9991","TIME_SYSTEM":"UTC","MEAN_ELEMENT_THEORY":"SGP4","TLE_LINE2":"2 45774  53.0569 338.1754 0001496  71.7274 288.3877 15.06394997106526","EPHEMERIS_TYPE":"0","NORAD_CAT_ID":"45774","REF_FRAME":"TEME","INCLINATION":"53.0569","FILE":"3445938","PERIOD":"95.592","OBJECT_TYPE":"PAYLOAD","MEAN_MOTION_DOT":"0.00000093","DECAY_DATE":null},{"INCLINATION":"53.0554","FILE":"3445938","DECAY_DATE":null,"MEAN_MOTION_DOT":"-0.00000082","OBJECT_TYPE":"PAYLOAD","PERIOD":"95.592","NORAD_CAT_ID":"45775","EPHEMERIS_TYPE":"0","REF_FRAME":"TEME","TLE_LINE1":"1 45775U 20038AX  22134.88193200 -.00000082  00000-0  13402-4 0  9999","MEAN_ELEMENT_THEORY":"SGP4","TLE_LINE2":"2 45775  53.0554 338.1596 0001151  88.8653 271.2468 15.06398565106536","TIME_SYSTEM":"UTC","REV_AT_EPOCH":"10653","LAUNCH_DATE":"2020-06-13","EPOCH":"2022-05-14T21:09:58.924800","MEAN_MOTION":"15.06398565","RCS_SIZE":"LARGE","PERIAPSIS":"546.421","ARG_OF_PERICENTER":"88.8653","SITE":"AFETR","CLASSIFICATION_TYPE":"U","BSTAR":"0.00001340200000","APOAPSIS":"548.015","CENTER_NAME":"EARTH","MEAN_MOTION_DDOT":"0.0000000000000","COUNTRY_CODE":"US","ELEMENT_SET_NO":"999","OBJECT_ID":"2020-038AX","MEAN_ANOMALY":"271.2468","GP_ID":"203560199","SEMIMAJOR_AXIS":"6925.353","ECCENTRICITY":"0.00011510","OBJECT_NAME":"STARLINK-1488","RA_OF_ASC_NODE":"338.1596"},{"ARG_OF_PERICENTER":"64.2824","RCS_SIZE":"LARGE","PERIAPSIS":"545.939","MEAN_MOTION_DDOT":"0.0000000000000","COUNTRY_CODE":"US","ELEMENT_SET_NO":"999","APOAPSIS":"548.483","CENTER_NAME":"EARTH","BSTAR":"0.00008099100000","SITE":"AFETR","CLASSIFICATION_TYPE":"U","GP_ID":"203560445","MEAN_ANOMALY":"295.8354","OBJECT_ID":"2020-038AY","RA_OF_ASC_NODE":"338.4134","OBJECT_NAME":"STARLINK-1489","SEMIMAJOR_AXIS":"6925.346","ECCENTRICITY":"0.00018370","OBJECT_TYPE":"PAYLOAD","PERIOD":"95.592","MEAN_MOTION_DOT":"0.00000925","DECAY_DATE":null,"INCLINATION":"53.0573","FILE":"3445938","REF_FRAME":"TEME","EPHEMERIS_TYPE":"0","NORAD_CAT_ID":"45776","TIME_SYSTEM":"UTC","TLE_LINE2":"2 45776  53.0573 338.4134 0001837  64.2824 295.8354 15.06400822106523","MEAN_ELEMENT_THEORY":"SGP4","TLE_LINE1":"1 45776U 20038AY  22134.82295667  .00000925  00000-0  80991-4 0  9996","MEAN_MOTION":"15.06400822","EPOCH":"2022-05-14T19:45:03.456288","REV_AT_EPOCH":"10652","LAUNCH_DATE":"2020-06-13"},{"TLE_LINE1":"1 45777U 20038AZ  22134.88561554  .00001251  00000-0  10288-3 0  9998","TIME_SYSTEM":"UTC","MEAN_ELEMENT_THEORY":"SGP4","TLE_LINE2":"2 45777  53.0557 338.1521 0001873  65.6952 294.4233 15.06399878106530","REV_AT_EPOCH":"10653","LAUNCH_DATE":"2020-06-13","MEAN_MOTION":"15.06399878","EPOCH":"2022-05-14T21:15:17.182656","FILE":"3445938","INCLINATION":"53.0557","OBJECT_TYPE":"PAYLOAD","MEAN_MOTION_DOT":"0.00001251","PERIOD":"95.592","DECAY_DATE":null,"NORAD_CAT_ID":"45777","EPHEMERIS_TYPE":"0","REF_FRAME":"TEME","OBJECT_ID":"2020-038AZ","GP_ID":"203561202","MEAN_ANOMALY":"294.4233","OBJECT_NAME":"STARLINK-1490","SEMIMAJOR_AXIS":"6925.349","ECCENTRICITY":"0.00018730","RA_OF_ASC_NODE":"338.1521","RCS_SIZE":"LARGE","PERIAPSIS":"545.917","ARG_OF_PERICENTER":"65.6952","BSTAR":"0.00010288000000","SITE":"AFETR","CLASSIFICATION_TYPE":"U","MEAN_MOTION_DDOT":"0.0000000000000","COUNTRY_CODE":"US","ELEMENT_SET_NO":"999","APOAPSIS":"548.511","CENTER_NAME":"EARTH"},{"TIME_SYSTEM":"UTC","MEAN_ELEMENT_THEORY":"SGP4","TLE_LINE2":"2 45778  53.0546 338.2160 0001510  92.7312 267.3850 15.06417892107631","TLE_LINE1":"1 45778U 20038BA  22134.86718232 -.00003112  00000-0 -19002-3 0  9997","MEAN_MOTION":"15.06417892","EPOCH":"2022-05-14T20:48:44.552448","REV_AT_EPOCH":"10763","LAUNCH_DATE":"2020-06-13","PERIOD":"95.591","OBJECT_TYPE":"PAYLOAD","MEAN_MOTION_DOT":"-0.00003112","DECAY_DATE":null,"FILE":"3445641","INCLINATION":"53.0546","REF_FRAME":"TEME","EPHEMERIS_TYPE":"0","NORAD_CAT_ID":"45778","GP_ID":"203534650","MEAN_ANOMALY":"267.3850","OBJECT_ID":"2020-038BA","RA_OF_ASC_NODE":"338.2160","OBJECT_NAME":"STARLINK-1491","SEMIMAJOR_AXIS":"6925.294","ECCENTRICITY":"0.00015100","ARG_OF_PERICENTER":"92.7312","RCS_SIZE":"LARGE","PERIAPSIS":"546.113","MEAN_MOTION_DDOT":"0.0000000000000","COUNTRY_CODE":"US","ELEMENT_SET_NO":"999","APOAPSIS":"548.204","CENTER_NAME":"EARTH","BSTAR":"-0.00019002000000","SITE":"AFETR","CLASSIFICATION_TYPE":"U"},{"RA_OF_ASC_NODE":"338.2300","OBJECT_NAME":"STARLINK-1492","ECCENTRICITY":"0.00015000","SEMIMAJOR_AXIS":"6925.350","GP_ID":"203560699","MEAN_ANOMALY":"282.0373","OBJECT_ID":"2020-038BB","ELEMENT_SET_NO":"999","COUNTRY_CODE":"US","MEAN_MOTION_DDOT":"0.0000000000000","CENTER_NAME":"EARTH","APOAPSIS":"548.254","BSTAR":"-0.00001349500000","CLASSIFICATION_TYPE":"U","SITE":"AFETR","ARG_OF_PERICENTER":"78.0784","PERIAPSIS":"546.176","RCS_SIZE":"LARGE","MEAN_MOTION":"15.06399511","EPOCH":"2022-05-14T20:43:26.476032","LAUNCH_DATE":"2020-06-13","REV_AT_EPOCH":"10651","TIME_SYSTEM":"UTC","MEAN_ELEMENT_THEORY":"SGP4","TLE_LINE2":"2 45779  53.0571 338.2300 0001500  78.0784 282.0373 15.06399511106512","TLE_LINE1":"1 45779U 20038BB  22134.86350088 -.00000482  00000-0 -13495-4 0  9997","REF_FRAME":"TEME","EPHEMERIS_TYPE":"0","NORAD_CAT_ID":"45779","MEAN_MOTION_DOT":"-0.00000482","OBJECT_TYPE":"PAYLOAD","PERIOD":"95.592","DECAY_DATE":null,"INCLINATION":"53.0571","FILE":"3445938"},{"RA_OF_ASC_NODE":"338.1977","SEMIMAJOR_AXIS":"6925.340","ECCENTRICITY":"0.00014850","OBJECT_NAME":"STARLINK-1496","MEAN_ANOMALY":"293.1161","GP_ID":"203560945","OBJECT_ID":"2020-038BC","APOAPSIS":"548.233","CENTER_NAME":"EARTH","MEAN_MOTION_DDOT":"0.0000000000000","COUNTRY_CODE":"US","ELEMENT_SET_NO":"999","SITE":"AFETR","CLASSIFICATION_TYPE":"U","BSTAR":"0.00000858490000","ARG_OF_PERICENTER":"66.9985","RCS_SIZE":"LARGE","PERIAPSIS":"546.177","EPOCH":"2022-05-14T20:59:22.149888","MEAN_MOTION":"15.06402808","REV_AT_EPOCH":"10651","LAUNCH_DATE":"2020-06-13","TLE_LINE2":"2 45780  53.0534 338.1977 0001485  66.9985 293.1161 15.06402808106515","MEAN_ELEMENT_THEORY":"SGP4","TIME_SYSTEM":"UTC","TLE_LINE1":"1 45780U 20038BC  22134.87456192 -.00000154  00000-0  85849-5 0  9991","REF_FRAME":"TEME","NORAD_CAT_ID":"45780","EPHEMERIS_TYPE":"0","DECAY_DATE":null,"PERIOD":"95.592","OBJECT_TYPE":"PAYLOAD","MEAN_MOTION_DOT":"-0.00000154","FILE":"3445938","INCLINATION":"53.0534"},{"CENTER_NAME":"EARTH","APOAPSIS":"548.373","ELEMENT_SET_NO":"999","MEAN_MOTION_DDOT":"0.0000000000000","COUNTRY_CODE":"US","CLASSIFICATION_TYPE":"U","SITE":"AFETR","BSTAR":"-0.00003491600000","ARG_OF_PERICENTER":"65.7882","PERIAPSIS":"546.082","RCS_SIZE":"LARGE","RA_OF_ASC_NODE":"338.3755","ECCENTRICITY":"0.00016540","SEMIMAJOR_AXIS":"6925.363","OBJECT_NAME":"STARLINK-1497","MEAN_ANOMALY":"294.3280","GP_ID":"203561702","OBJECT_ID":"2020-038BD","REF_FRAME":"TEME","EPHEMERIS_TYPE":"0","NORAD_CAT_ID":"45781","DECAY_DATE":null,"MEAN_MOTION_DOT":"-0.00000802","OBJECT_TYPE":"PAYLOAD","PERIOD":"95.592","INCLINATION":"53.0551","FILE":"3445938","EPOCH":"2022-05-14T20:00:59.232096","MEAN_MOTION":"15.06395429","LAUNCH_DATE":"2020-06-13","REV_AT_EPOCH":"10651","MEAN_ELEMENT_THEORY":"SGP4","TLE_LINE2":"2 45781  53.0551 338.3755 0001654  65.7882 294.3280 15.06395429106517","TIME_SYSTEM":"UTC","TLE_LINE1":"1 45781U 20038BD  22134.83401889 -.00000802  00000-0 -34916-4 0  9990"}];
